     2.100          NAVIGATION                              RINEX VERSION / TYPE
fic2rin                                 01/07/2013 00:07:12 PGM / RUN BY / DATE
                                                            END OF HEADER
 7 13  1  6  8  0  0.0  .165687408298D-03  .443378667114D-11  .000000000000D+00
     .380000000000D+02 -.614062500000D+02  .423231915022D-08 -.808788080310D+00
    -.318698585033D-05  .605026108678D-02  .525079667568D-05  .515371455956D+04
     .288000000000D+05  .176951289177D-06 -.208015341154D+01 -.428408384323D-07
     .975683402639D+00  .283968750000D+03 -.292269139522D+01 -.814605360154D-08
    -.121790787361D-09  .100000000000D+01  .172200000000D+04  .000000000000D+00
     .240000000000D+01  .000000000000D+00 -.111758708954D-07  .380000000000D+02
     .216060000000D+05  .400000000000D+01
 8 13  1  6  8  0  0.0  .383984297514D-05  .227373675443D-12  .000000000000D+00
     .140000000000D+02 -.621875000000D+02  .369229665612D-08 -.139858545652D+01
    -.343285501003D-05  .127100036480D-01  .574998557568D-05  .515361610413D+04
     .288000000000D+05  .912696123123D-07 -.199196066952D+01 -.221654772758D-06
     .998154097902D+00  .284656250000D+03 -.288647590435D+01 -.777032366517D-08
     .317870383435D-10  .100000000000D+01  .172200000000D+04  .000000000000D+00
     .240000000000D+01  .000000000000D+00 -.419095158577D-08  .140000000000D+02
     .216060000000D+05  .400000000000D+01
 9 13  1  6  8  0  0.0  .211743637919D-03  .261479726760D-11  .000000000000D+00
     .490000000000D+02 -.435937500000D+02  .415303013323D-08 -.100994322074D+01
    -.212527811527D-05  .170650000218D-01  .589899718761D-05  .515283716202D+04
     .288000000000D+05 -.296160578728D-06 -.210432358898D+01  .143423676491D-06
     .984361820358D+00  .285718750000D+03  .163517181158D+01 -.827498754359D-08
    -.767889128522D-10  .100000000000D+01  .172200000000D+04  .000000000000D+00
     .240000000000D+01  .000000000000D+00 -.558793544769D-08  .490000000000D+02
     .216060000000D+05  .400000000000D+01
11 13  1  6  8  0  0.0 -.340738799423D-03 -.386535248253D-11  .000000000000D+00
     .770000000000D+02 -.294062500000D+02  .666992068611D-08 -.608424856937D+00
    -.141561031342D-05  .138133957516D-01  .680983066559D-05  .515367543221D+04
     .288000000000D+05 -.614672899246D-07  .755950340755D+00  .195577740669D-06
     .888472574163D+00  .208343750000D+03  .113693990138D+01 -.929895876753D-08
    -.260367988229D-09  .100000000000D+01  .172200000000D+04  .000000000000D+00
     .240000000000D+01  .000000000000D+00 -.116415321827D-07  .770000000000D+02
     .216060000000D+05  .400000000000D+01
13 13  1  6  8  0  0.0  .154619105160D-03 -.284217094304D-11  .000000000000D+00
     .500000000000D+02  .607500000000D+02  .410802825872D-08  .162568490195D+01
     .309757888317D-05  .487004662864D-02  .421330332756D-05  .515357202530D+04
     .288000000000D+05  .577419996262D-07 -.304834555887D+01  .372529029846D-08
     .983524380218D+00  .308437500000D+03  .206608690122D+01 -.808355099806D-08
     .853606984729D-10  .100000000000D+01  .172200000000D+04  .000000000000D+00
     .240000000000D+01  .000000000000D+00 -.111758708954D-07  .500000000000D+02
     .216060000000D+05  .400000000000D+01
14 13  1  6  8  0  0.0  .219237525016D-03  .454747350886D-12  .000000000000D+00
     .570000000000D+02  .514375000000D+02  .430410785480D-08  .177759266220D+01
     .269524753094D-05  .672979594674D-02  .400468707085D-05  .515369188118D+04
     .288000000000D+05 -.143423676491D-06 -.307658915562D+01 -.201165676117D-06
     .976256926505D+00  .307812500000D+03 -.201469964056D+01 -.821248494010D-08
     .109647424398D-09  .100000000000D+01  .172200000000D+04  .000000000000D+00
     .240000000000D+01  .000000000000D+00 -.884756445885D-08  .570000000000D+02
     .216060000000D+05  .400000000000D+01
15 13  1  6  8  0  0.0 -.104324892163D-03 -.113686837722D-11  .000000000000D+00
     .570000000000D+02  .710625000000D+02  .498056460336D-08  .133626028214D+01
     .376813113689D-05  .520884850994D-02  .416487455368D-05  .515369818687D+04
     .288000000000D+05  .316649675369D-07  .311145544836D+01  .707805156708D-07
     .942936685098D+00  .287906250000D+03  .100655905820D+00 -.850964017496D-08
    -.678599694973D-11  .100000000000D+01  .172200000000D+04  .000000000000D+00
     .240000000000D+01  .000000000000D+00 -.102445483208D-07  .570000000000D+02
     .216060000000D+05  .400000000000D+01
16 13  1  6  8  0  0.0 -.251546967775D-03 -.341060513165D-12  .000000000000D+00
     .710000000000D+02 -.404062500000D+02  .398909473324D-08  .295057598896D+01
    -.200048089027D-05  .678355258424D-02  .102408230305D-04  .515356318092D+04
     .288000000000D+05 -.115483999252D-06 -.100366279346D+01  .316649675369D-07
     .983227723838D+00  .193687500000D+03  .260222653718D-01 -.764388982726D-08
     .352157525917D-09  .100000000000D+01  .172200000000D+04  .000000000000D+00
     .240000000000D+01  .000000000000D+00 -.977888703346D-08  .710000000000D+02
     .216060000000D+05  .400000000000D+01
17 13  1  6  8  0  0.0  .623497180641D-04 -.375166564481D-11  .000000000000D+00
     .420000000000D+02 -.140000000000D+02  .468555231492D-08  .197117080715D+01
    -.845640897751D-06  .797703757416D-02  .702776014805D-05  .515377742958D+04
     .288000000000D+05 -.208616256714D-06  .344245543780D-01 -.132247805595D-06
     .964724250283D+00  .248218750000D+03 -.226511944700D+01 -.808640825993D-08
     .235366946835D-09  .100000000000D+01  .172200000000D+04  .000000000000D+00
     .240000000000D+01  .000000000000D+00 -.107102096081D-07  .420000000000D+02
     .216060000000D+05  .400000000000D+01
18 13  1  6  8  0  0.0  .233011320233D-03  .181898940355D-11  .000000000000D+00
     .860000000000D+02  .775312500000D+02  .493163399378D-08 -.281881636304D+01
     .393576920033D-05  .136353361886D-01  .963546335697D-05  .515375837898D+04
     .288000000000D+05  .800937414169D-07  .209427941288D+01 -.100582838058D-06
     .927926121562D+00  .174718750000D+03 -.213132272960D+01 -.797140346952D-08
    -.678599694973D-11  .100000000000D+01  .172200000000D+04  .000000000000D+00
     .240000000000D+01  .000000000000D+00 -.107102096081D-07  .860000000000D+02
     .216060000000D+05  .400000000000D+01
19 13  1  6  8  0  0.0 -.337418168783D-03 -.329691829393D-11  .000000000000D+00
     .210000000000D+02 -.186562500000D+02  .490699011012D-08  .125244254585D+01
    -.713393092155D-06  .878076616209D-02  .663287937641D-05  .515364721489D+04
     .288000000000D+05  .186264514923D-07  .867649471369D-01  .109896063805D-06
     .961994193525D+00  .250750000000D+03  .276102192056D+00 -.824748639806D-08
     .503592405216D-10  .100000000000D+01  .172200000000D+04  .000000000000D+00
     .240000000000D+01  .000000000000D+00 -.144354999065D-07  .210000000000D+02
     .216060000000D+05  .400000000000D+01
20 13  1  6  8  0  0.0  .790166668594D-04  .136424205266D-11  .000000000000D+00
     .520000000000D+02  .685625000000D+02  .499735101687D-08 -.224552588881D+01
     .356882810593D-05  .544982485007D-02  .106524676085D-04  .515356622314D+04
     .288000000000D+05  .745058059692D-07  .204070027668D+01 -.577419996262D-07
     .928538376185D+00  .156312500000D+03  .128169040808D+01 -.816176854185D-08
    -.113576159474D-09  .100000000000D+01  .172200000000D+04  .000000000000D+00
     .240000000000D+01  .000000000000D+00 -.791624188423D-08  .520000000000D+02
     .216060000000D+05  .400000000000D+01
21 13  1  6  8  0  0.0 -.272873789072D-03 -.227373675443D-11  .000000000000D+00
     .880000000000D+02 -.144687500000D+02  .520271671403D-08 -.171352353879D+01
    -.881031155586D-06  .196258823853D-01  .806897878647D-05  .515374411392D+04
     .288000000000D+05  .387430191040D-06  .104506784140D+01 -.856816768646D-07
     .931203025875D+00  .202406250000D+03 -.218972482290D+01 -.806176437627D-08
    -.249296098469D-09  .100000000000D+01  .172200000000D+04  .000000000000D+00
     .240000000000D+01  .000000000000D+00 -.111758708954D-07  .880000000000D+02
     .216060000000D+05  .400000000000D+01
22 13  1  6  8  0  0.0  .155039597303D-03  .682121026330D-12  .000000000000D+00
     .510000000000D+02  .883125000000D+02  .501985195413D-08  .279439880908D+01
     .447407364845D-05  .614215084352D-02  .999309122562D-05  .515366904640D+04
     .288000000000D+05  .838190317154D-07  .209718542943D+01  .186264514923D-08
     .925665481569D+00  .167843750000D+03 -.202479088750D+01 -.814319633967D-08
    -.310727228751D-10  .100000000000D+01  .172200000000D+04  .000000000000D+00
     .340000000000D+01  .000000000000D+00 -.172294676304D-07  .510000000000D+02
     .216060000000D+05  .400000000000D+01
23 13  1  6  8  0  0.0  .126684084535D-03 -.375166564481D-11  .000000000000D+00
     .106000000000D+03  .699062500000D+02  .472555398115D-08  .834297979105D+00
     .368617475033D-05  .812435394619D-02  .428594648838D-05  .515376969337D+04
     .288000000000D+05 -.186264514923D-07 -.313270303731D+01  .165775418282D-06
     .957807905687D+00  .294343750000D+03 -.291610650544D+01 -.844999483335D-08
     .535736601294D-10  .100000000000D+01  .172200000000D+04  .000000000000D+00
     .340000000000D+01  .000000000000D+00 -.204890966415D-07  .106000000000D+03
     .216060000000D+05  .400000000000D+01
24 13  1  6  8  0  0.0  .113295391202D-05 -.568434188608D-12  .000000000000D+00
     .770000000000D+02 -.550312500000D+02  .460947771753D-08  .346175618415D+00
    -.291317701340D-05  .459904316813D-03  .519119203091D-05  .515371426582D+04
     .288000000000D+05 -.149011611938D-07 -.210632532612D+01  .000000000000D+00
     .959290336167D+00  .279812500000D+03 -.898829390481D-01 -.827748764773D-08
    -.141434462742D-09  .100000000000D+01  .172200000000D+04  .000000000000D+00
     .340000000000D+01  .000000000000D+00  .419095158577D-08  .770000000000D+02
     .216060000000D+05  .400000000000D+01
